{
    "links": {
        "self": "http://www.neowsapp.com/rest/v1/neo/3557199?api_key=iIulBulltgU6a56xZRHN4H3l9WmuAYTsLGpBGhQ2"
    },
    "id": "3557199",
    "neo_reference_id": "3557199",
    "name": "(2011 CF22)",
    "designation": "2011 CF22",
    "nasa_jpl_url": "http://ssd.jpl.nasa.gov/sbdb.cgi?sstr=3557199",
    "absolute_magnitude_h": 30.876,
    "estimated_diameter": {
        "kilometers": {
            "estimated_diameter_min": 0.0017756402,
            "estimated_diameter_max": 0.0039704523
        },
        "meters": {
            "estimated_diameter_min": 1.775640232,
            "estimated_diameter_max": 3.9704522624
        },
        "miles": {
            "estimated_diameter_min": 0.0011033313,
            "estimated_diameter_max": 0.0024671239
        },
        "feet": {
            "estimated_diameter_min": 5.8255914989,
            "estimated_diameter_max": 13.0264186006
        }
    },
    "is_potentially_hazardous_asteroid": false,
    "close_approach_data": [
        {
            "close_approach_date": "2011-02-06",
            "close_approach_date_full": "2011-Feb-06 06:33",
            "epoch_date_close_approach": 1296973980000,
            "relative_velocity": {
                "kilometers_per_second": "18.6675702914",
                "kilometers_per_hour": "67203.2530489856",
                "miles_per_hour": "41757.4879847989"
            },
            "miss_distance": {
                "astronomical": "0.0015003403",
                "lunar": "0.5836323767",
                "kilometers": "224447.713155161",
                "miles": "139465.3418607818"
            },
            "orbiting_body": "Moon"
        },
        {
            "close_approach_date": "2011-02-06",
            "close_approach_date_full": "2011-Feb-06 11:40",
            "epoch_date_close_approach": 1296992400000,
            "relative_velocity": {
                "kilometers_per_second": "19.6079082636",
                "kilometers_per_hour": "70588.4697490327",
                "miles_per_hour": "43860.929994892"
            },
            "miss_distance": {
                "astronomical": "0.0002686327",
                "lunar": "0.1044981203",
                "kilometers": "40186.879732349",
                "miles": "24970.9691464562"
            },
            "orbiting_body": "Earth"
        }
    ],
    "orbital_data": {
        "orbit_id": "6",
        "orbit_determination_date": "2017-04-06 08:54:33",
        "first_observation_date": "2011-02-07",
        "last_observation_date": "2011-02-07",
        "data_arc_in_days": null,
        "observations_used": 10,
        "orbit_uncertainty": "9",
        "minimum_orbit_intersection": ".000275437",
        "jupiter_tisserand_invariant": "3.564",
        "epoch_osculation": "2455599.5",
        "eccentricity": ".6752347370171499",
        "semi_major_axis": "1.956289851479487",
        "inclination": "1.069393226986978",
        "ascending_node_longitude": "138.0894834701879",
        "orbital_period": "999.4204457581885",
        "perihelion_distance": ".6353349880864164",
        "perihelion_argument": "275.8290443987089",
        "aphelion_distance": "3.277244714872558",
        "perihelion_time": "2455553.224594745076",
        "mean_anomaly": "16.66880636920985",
        "mean_motion": ".3602087605150942",
        "equinox": "J2000",
        "orbit_class": {
            "orbit_class_type": "APO",
            "orbit_class_description": "Near-Earth asteroid orbits which cross the Earth’s orbit similar to that of 1862 Apollo",
            "orbit_class_range": "a (semi-major axis) > 1.0 AU; q (perihelion) < 1.017 AU"
        }
    },
    "is_sentry_object": false
}